[{"OBJECT_NAME":"STARLINK-4786","OBJECT_ID":"2023-014C","EPOCH":"2026-03-09T09:24:36.743616","MEAN_MOTION":14.98328719,"ECCENTRICITY":0.00030724,"INCLINATION":69.9993,"RA_OF_ASC_NODE":65.1076,"ARG_OF_PERICENTER":269.3598,"MEAN_ANOMALY":90.7209,"EPHEMERIS_TYPE":0,"CLASSIFICATION_TYPE":"U","NORAD_CAT_ID":55393,"ELEMENT_SET_NO":999,"REV_AT_EPOCH":17201,"BSTAR":1.350925e-6,"MEAN_MOTION_DOT":-7.7e-7,"MEAN_MOTION_DDOT":0},{"OBJECT_NAME":"COSMOS 2242","OBJECT_ID":"1993-024A","EPOCH":"2026-03-09T23:17:07.942848","MEAN_MOTION":14.96550444,"ECCENTRICITY":0.00151707,"INCLINATION":82.5157,"RA_OF_ASC_NODE":266.4481,"ARG_OF_PERICENTER":307.8411,"MEAN_ANOMALY":52.1437,"EPHEMERIS_TYPE":0,"CLASSIFICATION_TYPE":"U","NORAD_CAT_ID":22626,"ELEMENT_SET_NO":999,"REV_AT_EPOCH":78043,"BSTAR":0.00021609887,"MEAN_MOTION_DOT":2.488e-5,"MEAN_MOTION_DDOT":0}]
